CCSDS_OMM_VERS = 2.0
CREATION_DATE  = 
ORIGINATOR     = 

OBJECT_NAME    = ERS-1
OBJECT_ID      = 1991-050A
CENTER_NAME    = EARTH
REF_FRAME      = TEME
TIME_SYSTEM    = UTC
MEAN_ELEMENT_THEORY = SGP/SGP4

EPOCH          = 2026-03-30T01:32:06.120672
MEAN_MOTION    = 14.39464879
ECCENTRICITY   = .0032735
INCLINATION    = 98.7864
RA_OF_ASC_NODE = 107.8096
ARG_OF_PERICENTER = 140.3979
MEAN_ANOMALY   = 219.9608

EPHEMERIS_TYPE = 0
CLASSIFICATION_TYPE = U
NORAD_CAT_ID   = 21574
ELEMENT_SET_NO = 999
REV_AT_EPOCH   = 81866
BSTAR          = .14146E-3
MEAN_MOTION_DOT = .397E-5
MEAN_MOTION_DDOT = 0

CCSDS_OMM_VERS = 2.0
CREATION_DATE  = 
ORIGINATOR     = 

OBJECT_NAME    = ARIANE 40 R/B
OBJECT_ID      = 1991-050F
CENTER_NAME    = EARTH
REF_FRAME      = TEME
TIME_SYSTEM    = UTC
MEAN_ELEMENT_THEORY = SGP/SGP4

EPOCH          = 2026-03-30T01:35:40.540416
MEAN_MOTION    = 14.42908335
ECCENTRICITY   = .0003473
INCLINATION    = 98.1969
RA_OF_ASC_NODE = 140.5341
ARG_OF_PERICENTER = 34.5763
MEAN_ANOMALY   = 325.5653

EPHEMERIS_TYPE = 0
CLASSIFICATION_TYPE = U
NORAD_CAT_ID   = 21610
ELEMENT_SET_NO = 999
REV_AT_EPOCH   = 82193
BSTAR          = .12012E-3
MEAN_MOTION_DOT = .36E-5
MEAN_MOTION_DDOT = 0

CCSDS_OMM_VERS = 2.0
CREATION_DATE  = 
ORIGINATOR     = 

OBJECT_NAME    = INTERCOSMOS 25
OBJECT_ID      = 1991-086A
CENTER_NAME    = EARTH
REF_FRAME      = TEME
TIME_SYSTEM    = UTC
MEAN_ELEMENT_THEORY = SGP/SGP4

EPOCH          = 2026-03-30T01:07:17.101344
MEAN_MOTION    = 12.12068637
ECCENTRICITY   = .148647
INCLINATION    = 82.6008
RA_OF_ASC_NODE = 297.7011
ARG_OF_PERICENTER = 73.0720
MEAN_ANOMALY   = 302.7571

EPHEMERIS_TYPE = 0
CLASSIFICATION_TYPE = U
NORAD_CAT_ID   = 21819
ELEMENT_SET_NO = 999
REV_AT_EPOCH   = 49915
BSTAR          = .4234E-3
MEAN_MOTION_DOT = .2192E-4
MEAN_MOTION_DDOT = 0

CCSDS_OMM_VERS = 2.0
CREATION_DATE  = 
ORIGINATOR     = 

OBJECT_NAME    = SL-8 R/B
OBJECT_ID      = 1992-008B
CENTER_NAME    = EARTH
REF_FRAME      = TEME
TIME_SYSTEM    = UTC
MEAN_ELEMENT_THEORY = SGP/SGP4

EPOCH          = 2026-03-30T04:15:56.705760
MEAN_MOTION    = 13.75969560
ECCENTRICITY   = .003587
INCLINATION    = 82.9233
RA_OF_ASC_NODE = 252.5334
ARG_OF_PERICENTER = 78.0589
MEAN_ANOMALY   = 94.2018

EPHEMERIS_TYPE = 0
CLASSIFICATION_TYPE = U
NORAD_CAT_ID   = 21876
ELEMENT_SET_NO = 999
REV_AT_EPOCH   = 71223
BSTAR          = -.2522E-5
MEAN_MOTION_DOT = .13E-6
MEAN_MOTION_DDOT = 0

CCSDS_OMM_VERS = 2.0
CREATION_DATE  = 
ORIGINATOR     = 

OBJECT_NAME    = SL-8 R/B
OBJECT_ID      = 1992-020B
CENTER_NAME    = EARTH
REF_FRAME      = TEME
TIME_SYSTEM    = UTC
MEAN_ELEMENT_THEORY = SGP/SGP4

EPOCH          = 2026-03-30T04:54:34.188768
MEAN_MOTION    = 13.75550527
ECCENTRICITY   = .0027804
INCLINATION    = 82.9300
RA_OF_ASC_NODE = 138.5295
ARG_OF_PERICENTER = 238.8220
MEAN_ANOMALY   = 181.7399

EPHEMERIS_TYPE = 0
CLASSIFICATION_TYPE = U
NORAD_CAT_ID   = 21938
ELEMENT_SET_NO = 999
REV_AT_EPOCH   = 70395
BSTAR          = .24167E-4
MEAN_MOTION_DOT = .38E-6
MEAN_MOTION_DDOT = 0

CCSDS_OMM_VERS = 2.0
CREATION_DATE  = 
ORIGINATOR     = 

OBJECT_NAME    = USA 81
OBJECT_ID      = 1992-023A
CENTER_NAME    = EARTH
REF_FRAME      = TEME
TIME_SYSTEM    = UTC
MEAN_ELEMENT_THEORY = SGP/SGP4

EPOCH          = 2026-03-30T01:22:23.236032
MEAN_MOTION    = 14.32374534
ECCENTRICITY   = .0001731
INCLINATION    = 85.0045
RA_OF_ASC_NODE = 119.6869
ARG_OF_PERICENTER = 68.1415
MEAN_ANOMALY   = 291.9962

EPHEMERIS_TYPE = 0
CLASSIFICATION_TYPE = U
NORAD_CAT_ID   = 21949
ELEMENT_SET_NO = 999
REV_AT_EPOCH   = 9770
BSTAR          = .70461E-4
MEAN_MOTION_DOT = .21E-5
MEAN_MOTION_DDOT = 0

CCSDS_OMM_VERS = 2.0
CREATION_DATE  = 
ORIGINATOR     = 

OBJECT_NAME    = COSMOS 2219
OBJECT_ID      = 1992-076A
CENTER_NAME    = EARTH
REF_FRAME      = TEME
TIME_SYSTEM    = UTC
MEAN_ELEMENT_THEORY = SGP/SGP4

EPOCH          = 2026-03-30T02:32:18.218688
MEAN_MOTION    = 14.14090410
ECCENTRICITY   = .0017854
INCLINATION    = 71.0619
RA_OF_ASC_NODE = 335.3936
ARG_OF_PERICENTER = 176.9053
MEAN_ANOMALY   = 183.2183

EPHEMERIS_TYPE = 0
CLASSIFICATION_TYPE = U
NORAD_CAT_ID   = 22219
ELEMENT_SET_NO = 999
REV_AT_EPOCH   = 72126
BSTAR          = -.91527E-4
MEAN_MOTION_DOT = -.222E-5
MEAN_MOTION_DDOT = 0

CCSDS_OMM_VERS = 2.0
CREATION_DATE  = 
ORIGINATOR     = 

OBJECT_NAME    = SL-16 R/B
OBJECT_ID      = 1992-076B
CENTER_NAME    = EARTH
REF_FRAME      = TEME
TIME_SYSTEM    = UTC
MEAN_ELEMENT_THEORY = SGP/SGP4

EPOCH          = 2026-03-30T03:56:58.272576
MEAN_MOTION    = 14.16863686
ECCENTRICITY   = .0010734
INCLINATION    = 70.9994
RA_OF_ASC_NODE = 145.2471
ARG_OF_PERICENTER = 58.1476
MEAN_ANOMALY   = 332.8781

EPHEMERIS_TYPE = 0
CLASSIFICATION_TYPE = U
NORAD_CAT_ID   = 22220
ELEMENT_SET_NO = 999
REV_AT_EPOCH   = 72473
BSTAR          = -.60384E-4
MEAN_MOTION_DOT = -.169E-5
MEAN_MOTION_DDOT = 0

CCSDS_OMM_VERS = 2.0
CREATION_DATE  = 
ORIGINATOR     = 

OBJECT_NAME    = COSMOS 2221
OBJECT_ID      = 1992-080A
CENTER_NAME    = EARTH
REF_FRAME      = TEME
TIME_SYSTEM    = UTC
MEAN_ELEMENT_THEORY = SGP/SGP4

EPOCH          = 2026-03-29T23:13:26.757120
MEAN_MOTION    = 14.96286734
ECCENTRICITY   = .0015513
INCLINATION    = 82.5006
RA_OF_ASC_NODE = 259.6508
ARG_OF_PERICENTER = 122.0227
MEAN_ANOMALY   = 238.2504

EPHEMERIS_TYPE = 0
CLASSIFICATION_TYPE = U
NORAD_CAT_ID   = 22236
ELEMENT_SET_NO = 999
REV_AT_EPOCH   = 78382
BSTAR          = .26052E-3
MEAN_MOTION_DOT = .2975E-4
MEAN_MOTION_DDOT = 0

CCSDS_OMM_VERS = 2.0
CREATION_DATE  = 
ORIGINATOR     = 

OBJECT_NAME    = SL-16 R/B
OBJECT_ID      = 1992-093B
CENTER_NAME    = EARTH
REF_FRAME      = TEME
TIME_SYSTEM    = UTC
MEAN_ELEMENT_THEORY = SGP/SGP4

EPOCH          = 2026-03-30T02:13:10.290144
MEAN_MOTION    = 14.15455201
ECCENTRICITY   = .0006533
INCLINATION    = 71.0230
RA_OF_ASC_NODE = 321.4377
ARG_OF_PERICENTER = 274.0167
MEAN_ANOMALY   = 86.0209

EPHEMERIS_TYPE = 0
CLASSIFICATION_TYPE = U
NORAD_CAT_ID   = 22285
ELEMENT_SET_NO = 999
REV_AT_EPOCH   = 71604
BSTAR          = .10171E-3
MEAN_MOTION_DOT = .151E-5
MEAN_MOTION_DDOT = 0

CCSDS_OMM_VERS = 2.0
CREATION_DATE  = 
ORIGINATOR     = 

OBJECT_NAME    = COSMOS 2228
OBJECT_ID      = 1992-094A
CENTER_NAME    = EARTH
REF_FRAME      = TEME
TIME_SYSTEM    = UTC
MEAN_ELEMENT_THEORY = SGP/SGP4

EPOCH          = 2026-03-30T04:06:11.017440
MEAN_MOTION    = 14.97297508
ECCENTRICITY   = .0016942
INCLINATION    = 82.5187
RA_OF_ASC_NODE = 217.7001
ARG_OF_PERICENTER = 230.1288
MEAN_ANOMALY   = 129.8445

EPHEMERIS_TYPE = 0
CLASSIFICATION_TYPE = U
NORAD_CAT_ID   = 22286
ELEMENT_SET_NO = 999
REV_AT_EPOCH   = 77912
BSTAR          = .33839E-3
MEAN_MOTION_DOT = .3959E-4
MEAN_MOTION_DDOT = 0

CCSDS_OMM_VERS = 2.0
CREATION_DATE  = 
ORIGINATOR     = 

OBJECT_NAME    = SL-16 R/B
OBJECT_ID      = 1993-016B
CENTER_NAME    = EARTH
REF_FRAME      = TEME
TIME_SYSTEM    = UTC
MEAN_ELEMENT_THEORY = SGP/SGP4

EPOCH          = 2026-03-30T04:56:05.248320
MEAN_MOTION    = 14.15305781
ECCENTRICITY   = .0012348
INCLINATION    = 71.0076
RA_OF_ASC_NODE = 172.0950
ARG_OF_PERICENTER = 287.6435
MEAN_ANOMALY   = 72.3339

EPHEMERIS_TYPE = 0
CLASSIFICATION_TYPE = U
NORAD_CAT_ID   = 22566
ELEMENT_SET_NO = 999
REV_AT_EPOCH   = 70507
BSTAR          = .67533E-4
MEAN_MOTION_DOT = .84E-6
MEAN_MOTION_DDOT = 0

